{
  "type": "FeatureCollection",
  "features": [
    {
      "type": "Feature",
      "properties": {
        "norad_id": 30726,
        "name": "FENGYUN 1C DEB",
        "group": "fengyun-1c-debris",
        "lat": -24.63108804360007,
        "lon": 161.07453075633777,
        "alt_km": 818.0687583436611,
        "timestamp": "2025-12-09T16:56:36.853073+00:00",
        "meta_object_name": "FENGYUN 1C DEB",
        "meta_object_id": "1999-025ASL",
        "meta_epoch": "2025-12-09T11:35:20.381856",
        "meta_mean_motion": 14.09280499,
        "meta_eccentricity": 0.0078201,
        "meta_inclination": 99.2674,
        "meta_ra_of_asc_node": 345.1383,
        "meta_arg_of_pericenter": 235.3178,
        "meta_mean_anomaly": 278.6996,
        "meta_ephemeris_type": 0,
        "meta_classification_type": "U",
        "meta_norad_cat_id": 30726,
        "meta_element_set_no": 999,
        "meta_rev_at_epoch": 95937,
        "meta_bstar": 0.0019119,
        "meta_mean_motion_dot": 3.377e-05,
        "meta_mean_motion_ddot": 0,
        "tle_line1": "1 30726U 99025ASL 25343.48287479  .00003377  00000+0  19119-2 0  9991",
        "tle_line2": "2 30726  99.2674 345.1383 0078201 235.3178 278.6996 14.09280499959377"
      },
      "geometry": {
        "type": "Point",
        "coordinates": [
          161.07453075633777,
          -24.63108804360007
        ]
      }
    },
    {
      "type": "Feature",
      "properties": {
        "norad_id": 30728,
        "name": "FENGYUN 1C DEB",
        "group": "fengyun-1c-debris",
        "lat": -41.225155513998,
        "lon": -1.960460418737709,
        "alt_km": 868.0528897754793,
        "timestamp": "2025-12-09T16:56:36.853084+00:00",
        "meta_object_name": "FENGYUN 1C DEB",
        "meta_object_id": "1999-025ASN",
        "meta_epoch": "2025-12-09T00:16:16.017600",
        "meta_mean_motion": 14.23471948,
        "meta_eccentricity": 0.00995528,
        "meta_inclination": 98.5294,
        "meta_ra_of_asc_node": 349.8101,
        "meta_arg_of_pericenter": 92.7197,
        "meta_mean_anomaly": 268.5382,
        "meta_ephemeris_type": 0,
        "meta_classification_type": "U",
        "meta_norad_cat_id": 30728,
        "meta_element_set_no": 999,
        "meta_rev_at_epoch": 97636,
        "meta_bstar": 0.00010443206,
        "meta_mean_motion_dot": 2.08e-06,
        "meta_mean_motion_ddot": 0,
        "tle_line1": "1 30728U 99025ASN 25343.01129650  .00000208  00000+0  10443-3 0  9990",
        "tle_line2": "2 30728  98.5294 349.8101 0099552  92.7197 268.5382 14.23471948976368"
      },
      "geometry": {
        "type": "Point",
        "coordinates": [
          -1.960460418737709,
          -41.225155513998
        ]
      }
    },
    {
      "type": "Feature",
      "properties": {
        "norad_id": 30730,
        "name": "FENGYUN 1C DEB",
        "group": "fengyun-1c-debris",
        "lat": -54.81356041238545,
        "lon": -169.54103300888204,
        "alt_km": 870.4167887426556,
        "timestamp": "2025-12-09T16:56:36.853094+00:00",
        "meta_object_name": "FENGYUN 1C DEB",
        "meta_object_id": "1999-025ASQ",
        "meta_epoch": "2025-12-09T02:39:13.699872",
        "meta_mean_motion": 14.25449326,
        "meta_eccentricity": 0.00786246,
        "meta_inclination": 98.6182,
        "meta_ra_of_asc_node": 22.2951,
        "meta_arg_of_pericenter": 59.9132,
        "meta_mean_anomaly": 2.0607,
        "meta_ephemeris_type": 0,
        "meta_classification_type": "U",
        "meta_norad_cat_id": 30730,
        "meta_element_set_no": 999,
        "meta_rev_at_epoch": 96954,
        "meta_bstar": 0.0011635761,
        "meta_mean_motion_dot": 2.795e-05,
        "meta_mean_motion_ddot": 0,
        "tle_line1": "1 30730U 99025ASQ 25343.11057523  .00002795  00000+0  11636-2 0  9990",
        "tle_line2": "2 30730  98.6182  22.2951 0078624  59.9132   2.0607 14.25449326969544"
      },
      "geometry": {
        "type": "Point",
        "coordinates": [
          -169.54103300888204,
          -54.81356041238545
        ]
      }
    },
    {
      "type": "Feature",
      "properties": {
        "norad_id": 30731,
        "name": "FENGYUN 1C DEB",
        "group": "fengyun-1c-debris",
        "lat": -45.106899642321395,
        "lon": -126.00508415876646,
        "alt_km": 750.4808517668816,
        "timestamp": "2025-12-09T16:56:36.853104+00:00",
        "meta_object_name": "FENGYUN 1C DEB",
        "meta_object_id": "1999-025ASR",
        "meta_epoch": "2025-12-08T21:49:27.204960",
        "meta_mean_motion": 14.41679743,
        "meta_eccentricity": 0.0014521,
        "meta_inclination": 98.8594,
        "meta_ra_of_asc_node": 62.1759,
        "meta_arg_of_pericenter": 256.3885,
        "meta_mean_anomaly": 157.1587,
        "meta_ephemeris_type": 0,
        "meta_classification_type": "U",
        "meta_norad_cat_id": 30731,
        "meta_element_set_no": 999,
        "meta_rev_at_epoch": 97301,
        "meta_bstar": 0.0026391,
        "meta_mean_motion_dot": 8.574e-05,
        "meta_mean_motion_ddot": 0,
        "tle_line1": "1 30731U 99025ASR 25342.90934265  .00008574  00000+0  26391-2 0  9999",
        "tle_line2": "2 30731  98.8594  62.1759 0014521 256.3885 157.1587 14.41679743973019"
      },
      "geometry": {
        "type": "Point",
        "coordinates": [
          -126.00508415876646,
          -45.106899642321395
        ]
      }
    },
    {
      "type": "Feature",
      "properties": {
        "norad_id": 30732,
        "name": "FENGYUN 1C DEB",
        "group": "fengyun-1c-debris",
        "lat": 27.2077964306849,
        "lon": -0.6565475778064421,
        "alt_km": 967.6571344383838,
        "timestamp": "2025-12-09T16:56:36.853114+00:00",
        "meta_object_name": "FENGYUN 1C DEB",
        "meta_object_id": "1999-025ASS",
        "meta_epoch": "2025-12-09T08:20:13.079040",
        "meta_mean_motion": 14.03895103,
        "meta_eccentricity": 0.0123777,
        "meta_inclination": 98.8045,
        "meta_ra_of_asc_node": 3.5661,
        "meta_arg_of_pericenter": 218.5685,
        "meta_mean_anomaly": 157.4305,
        "meta_ephemeris_type": 0,
        "meta_classification_type": "U",
        "meta_norad_cat_id": 30732,
        "meta_element_set_no": 999,
        "meta_rev_at_epoch": 96144,
        "meta_bstar": 0.0007806,
        "meta_mean_motion_dot": 1.275e-05,
        "meta_mean_motion_ddot": 0,
        "tle_line1": "1 30732U 99025ASS 25343.34737360  .00001275  00000+0  78060-3 0  9998",
        "tle_line2": "2 30732  98.8045   3.5661 0123777 218.5685 157.4305 14.03895103961447"
      },
      "geometry": {
        "type": "Point",
        "coordinates": [
          -0.6565475778064421,
          27.2077964306849
        ]
      }
    },
    {
      "type": "Feature",
      "properties": {
        "norad_id": 30735,
        "name": "FENGYUN 1C DEB",
        "group": "fengyun-1c-debris",
        "lat": 38.40967529117799,
        "lon": 47.75316439076224,
        "alt_km": 844.1614242316655,
        "timestamp": "2025-12-09T16:56:36.853127+00:00",
        "meta_object_name": "FENGYUN 1C DEB",
        "meta_object_id": "1999-025ASV",
        "meta_epoch": "2025-12-08T03:47:51.801216",
        "meta_mean_motion": 14.2391227,
        "meta_eccentricity": 0.00592297,
        "meta_inclination": 98.7639,
        "meta_ra_of_asc_node": 53.2361,
        "meta_arg_of_pericenter": 258.1146,
        "meta_mean_anomaly": 131.1031,
        "meta_ephemeris_type": 0,
        "meta_classification_type": "U",
        "meta_norad_cat_id": 30735,
        "meta_element_set_no": 999,
        "meta_rev_at_epoch": 96683,
        "meta_bstar": 0.0022795015,
        "meta_mean_motion_dot": 5.279e-05,
        "meta_mean_motion_ddot": 0,
        "tle_line1": "1 30735U 99025ASV 25342.15823844  .00005279  00000+0  22795-2 0  9993",
        "tle_line2": "2 30735  98.7639  53.2361 0059229 258.1146 131.1031 14.23912270966839"
      },
      "geometry": {
        "type": "Point",
        "coordinates": [
          47.75316439076224,
          38.40967529117799
        ]
      }
    },
    {
      "type": "Feature",
      "properties": {
        "norad_id": 30736,
        "name": "FENGYUN 1C DEB",
        "group": "fengyun-1c-debris",
        "lat": -67.2124424489652,
        "lon": -179.64307627704517,
        "alt_km": 1242.9797277558391,
        "timestamp": "2025-12-09T16:56:36.853137+00:00",
        "meta_object_name": "FENGYUN 1C DEB",
        "meta_object_id": "1999-025ASW",
        "meta_epoch": "2025-12-06T16:01:27.387840",
        "meta_mean_motion": 13.61611053,
        "meta_eccentricity": 0.02800041,
        "meta_inclination": 98.7811,
        "meta_ra_of_asc_node": 19.2067,
        "meta_arg_of_pericenter": 70.187,
        "meta_mean_anomaly": 53.7062,
        "meta_ephemeris_type": 0,
        "meta_classification_type": "U",
        "meta_norad_cat_id": 30736,
        "meta_element_set_no": 999,
        "meta_rev_at_epoch": 92770,
        "meta_bstar": 0.0030781788,
        "meta_mean_motion_dot": 3.026e-05,
        "meta_mean_motion_ddot": 0,
        "tle_line1": "1 30736U 99025ASW 25340.66767810  .00003026  00000+0  30782-2 0  9991",
        "tle_line2": "2 30736  98.7811  19.2067 0280004  70.1870  53.7062 13.61611053927702"
      },
      "geometry": {
        "type": "Point",
        "coordinates": [
          -179.64307627704517,
          -67.2124424489652
        ]
      }
    }
  ]
}